AQUA                    
1 27424U 02022A   26079.50571887  .00000872  00000+0  18372-3 0  9990
2 27424  98.4194  47.0691 0000796 113.2422 347.7879 14.62001089270319
CZ-4B R/B               
1 27432U 02024C   26079.38975566  .00000035  00000+0  40983-4 0  9994
2 27432  98.8815 132.7414 0049932 353.8747  16.5106 14.14549482230753
MIDORI II (ADEOS-II)    
1 27597U 02056A   26079.37439158  .00000250  00000+0  11613-3 0  9998
2 27597  98.7789  37.9271 0001150  29.2858 330.8388 14.29292791211823
H-2A R/B                
1 27601U 02056E   26079.39464618  .00000228  00000+0  94276-4 0  9997
2 27601  98.3222  39.3539 0071081 129.0519 343.3622 14.33767382215645
CZ-4B R/B               
1 28059U 03049C   26079.45511828  .00000292  00000+0  78628-4 0  9995
2 28059  98.6889  74.7831 0047773 197.5564 162.3982 14.55029562188163
CZ-2C R/B               
1 28222U 04012C   26079.15822986  .00041551  00000+0  41047-3 0  9992
2 28222  97.7200 145.4513 0012937 266.6030  93.3749 15.65689873205911
SL-16 R/B               
1 28353U 04021B   26079.41747084 -.00000184  00000+0 -70820-4 0  9992
2 28353  70.9998 209.9789 0004576 356.3058   3.8030 14.14593572124351
CZ-4B R/B               
1 28415U 04035C   26079.51006998  .00007355  00000+0  25846-3 0  9991
2 28415  97.3473 113.6230 0030110 291.2762  68.5264 15.29238452181568
CZ-2C R/B               
1 28480U 04046B   26079.49419154  .00000122  00000+0  59771-4 0  9994
2 28480  98.1980 353.8053 0140391 122.6605 238.8211 14.26995630110042
ARIANE 5 R/B            
1 28499U 04049H   26079.41150820  .00000621  00000+0  75281-4 0  9999
2 28499  98.2641 248.2710 0083233 316.9557  42.5166 14.85284101147384
CZ-2D R/B               
1 28738U 05024B   26079.28897950  .00029756  00000+0  35450-3 0  9999
2 28738  97.3582  94.8309 0003983  16.3856 343.7530 15.61045673141435
ALOS (DAICHI)           
1 28931U 06002A   26079.39509770  .00001127  00000+0  19694-3 0  9997
2 28931  98.1238  35.2982 0000716  84.4020 275.7267 14.69841696 75054
