CCSDS_OMM_VERS = 2.0
CREATION_DATE  = 
ORIGINATOR     = 

OBJECT_NAME    = AQUA
OBJECT_ID      = 2002-022A
CENTER_NAME    = EARTH
REF_FRAME      = TEME
TIME_SYSTEM    = UTC
MEAN_ELEMENT_THEORY = SGP/SGP4

EPOCH          = 2026-03-20T12:08:14.110368
MEAN_MOTION    = 14.62001089
ECCENTRICITY   = .0000796
INCLINATION    = 98.4194
RA_OF_ASC_NODE = 47.0691
ARG_OF_PERICENTER = 113.2422
MEAN_ANOMALY   = 347.7879

EPHEMERIS_TYPE = 0
CLASSIFICATION_TYPE = U
NORAD_CAT_ID   = 27424
ELEMENT_SET_NO = 999
REV_AT_EPOCH   = 27031
BSTAR          = .18372E-3
MEAN_MOTION_DOT = .872E-5
MEAN_MOTION_DDOT = 0

CCSDS_OMM_VERS = 2.0
CREATION_DATE  = 
ORIGINATOR     = 

OBJECT_NAME    = CZ-4B R/B
OBJECT_ID      = 2002-024C
CENTER_NAME    = EARTH
REF_FRAME      = TEME
TIME_SYSTEM    = UTC
MEAN_ELEMENT_THEORY = SGP/SGP4

EPOCH          = 2026-03-20T09:21:14.889024
MEAN_MOTION    = 14.14549482
ECCENTRICITY   = .0049932
INCLINATION    = 98.8815
RA_OF_ASC_NODE = 132.7414
ARG_OF_PERICENTER = 353.8747
MEAN_ANOMALY   = 16.5106

EPHEMERIS_TYPE = 0
CLASSIFICATION_TYPE = U
NORAD_CAT_ID   = 27432
ELEMENT_SET_NO = 999
REV_AT_EPOCH   = 23075
BSTAR          = .40983E-4
MEAN_MOTION_DOT = .35E-6
MEAN_MOTION_DDOT = 0

CCSDS_OMM_VERS = 2.0
CREATION_DATE  = 
ORIGINATOR     = 

OBJECT_NAME    = MIDORI II (ADEOS-II)
OBJECT_ID      = 2002-056A
CENTER_NAME    = EARTH
REF_FRAME      = TEME
TIME_SYSTEM    = UTC
MEAN_ELEMENT_THEORY = SGP/SGP4

EPOCH          = 2026-03-20T08:59:07.432512
MEAN_MOTION    = 14.29292791
ECCENTRICITY   = .000115
INCLINATION    = 98.7789
RA_OF_ASC_NODE = 37.9271
ARG_OF_PERICENTER = 29.2858
MEAN_ANOMALY   = 330.8388

EPHEMERIS_TYPE = 0
CLASSIFICATION_TYPE = U
NORAD_CAT_ID   = 27597
ELEMENT_SET_NO = 999
REV_AT_EPOCH   = 21182
BSTAR          = .11613E-3
MEAN_MOTION_DOT = .25E-5
MEAN_MOTION_DDOT = 0

CCSDS_OMM_VERS = 2.0
CREATION_DATE  = 
ORIGINATOR     = 

OBJECT_NAME    = H-2A R/B
OBJECT_ID      = 2002-056E
CENTER_NAME    = EARTH
REF_FRAME      = TEME
TIME_SYSTEM    = UTC
MEAN_ELEMENT_THEORY = SGP/SGP4

EPOCH          = 2026-03-20T09:28:17.429952
MEAN_MOTION    = 14.33767382
ECCENTRICITY   = .0071081
INCLINATION    = 98.3222
RA_OF_ASC_NODE = 39.3539
ARG_OF_PERICENTER = 129.0519
MEAN_ANOMALY   = 343.3622

EPHEMERIS_TYPE = 0
CLASSIFICATION_TYPE = U
NORAD_CAT_ID   = 27601
ELEMENT_SET_NO = 999
REV_AT_EPOCH   = 21564
BSTAR          = .94276E-4
MEAN_MOTION_DOT = .228E-5
MEAN_MOTION_DDOT = 0

CCSDS_OMM_VERS = 2.0
CREATION_DATE  = 
ORIGINATOR     = 

OBJECT_NAME    = CZ-4B R/B
OBJECT_ID      = 2003-049C
CENTER_NAME    = EARTH
REF_FRAME      = TEME
TIME_SYSTEM    = UTC
MEAN_ELEMENT_THEORY = SGP/SGP4

EPOCH          = 2026-03-20T10:55:22.219392
MEAN_MOTION    = 14.55029562
ECCENTRICITY   = .0047773
INCLINATION    = 98.6889
RA_OF_ASC_NODE = 74.7831
ARG_OF_PERICENTER = 197.5564
MEAN_ANOMALY   = 162.3982

EPHEMERIS_TYPE = 0
CLASSIFICATION_TYPE = U
NORAD_CAT_ID   = 28059
ELEMENT_SET_NO = 999
REV_AT_EPOCH   = 18816
BSTAR          = .78628E-4
MEAN_MOTION_DOT = .292E-5
MEAN_MOTION_DDOT = 0

CCSDS_OMM_VERS = 2.0
CREATION_DATE  = 
ORIGINATOR     = 

OBJECT_NAME    = CZ-2C R/B
OBJECT_ID      = 2004-012C
CENTER_NAME    = EARTH
REF_FRAME      = TEME
TIME_SYSTEM    = UTC
MEAN_ELEMENT_THEORY = SGP/SGP4

EPOCH          = 2026-03-20T03:47:51.059904
MEAN_MOTION    = 15.65689873
ECCENTRICITY   = .0012937
INCLINATION    = 97.7200
RA_OF_ASC_NODE = 145.4513
ARG_OF_PERICENTER = 266.6030
MEAN_ANOMALY   = 93.3749

EPHEMERIS_TYPE = 0
CLASSIFICATION_TYPE = U
NORAD_CAT_ID   = 28222
ELEMENT_SET_NO = 999
REV_AT_EPOCH   = 20591
BSTAR          = .41046893E-3
MEAN_MOTION_DOT = .41551E-3
MEAN_MOTION_DDOT = 0

CCSDS_OMM_VERS = 2.0
CREATION_DATE  = 
ORIGINATOR     = 

OBJECT_NAME    = SL-16 R/B
OBJECT_ID      = 2004-021B
CENTER_NAME    = EARTH
REF_FRAME      = TEME
TIME_SYSTEM    = UTC
MEAN_ELEMENT_THEORY = SGP/SGP4

EPOCH          = 2026-03-20T10:01:09.480576
MEAN_MOTION    = 14.14593572
ECCENTRICITY   = .0004576
INCLINATION    = 70.9998
RA_OF_ASC_NODE = 209.9789
ARG_OF_PERICENTER = 356.3058
MEAN_ANOMALY   = 3.8030

EPHEMERIS_TYPE = 0
CLASSIFICATION_TYPE = U
NORAD_CAT_ID   = 28353
ELEMENT_SET_NO = 999
REV_AT_EPOCH   = 12435
BSTAR          = -.7082E-4
MEAN_MOTION_DOT = -.184E-5
MEAN_MOTION_DDOT = 0

CCSDS_OMM_VERS = 2.0
CREATION_DATE  = 
ORIGINATOR     = 

OBJECT_NAME    = CZ-4B R/B
OBJECT_ID      = 2004-035C
CENTER_NAME    = EARTH
REF_FRAME      = TEME
TIME_SYSTEM    = UTC
MEAN_ELEMENT_THEORY = SGP/SGP4

EPOCH          = 2026-03-20T12:14:30.046272
MEAN_MOTION    = 15.29238452
ECCENTRICITY   = .003011
INCLINATION    = 97.3473
RA_OF_ASC_NODE = 113.6230
ARG_OF_PERICENTER = 291.2762
MEAN_ANOMALY   = 68.5264

EPHEMERIS_TYPE = 0
CLASSIFICATION_TYPE = U
NORAD_CAT_ID   = 28415
ELEMENT_SET_NO = 999
REV_AT_EPOCH   = 18156
BSTAR          = .25846E-3
MEAN_MOTION_DOT = .7355E-4
MEAN_MOTION_DDOT = 0

CCSDS_OMM_VERS = 2.0
CREATION_DATE  = 
ORIGINATOR     = 

OBJECT_NAME    = CZ-2C R/B
OBJECT_ID      = 2004-046B
CENTER_NAME    = EARTH
REF_FRAME      = TEME
TIME_SYSTEM    = UTC
MEAN_ELEMENT_THEORY = SGP/SGP4

EPOCH          = 2026-03-20T11:51:38.149056
MEAN_MOTION    = 14.26995630
ECCENTRICITY   = .0140391
INCLINATION    = 98.1980
RA_OF_ASC_NODE = 353.8053
ARG_OF_PERICENTER = 122.6605
MEAN_ANOMALY   = 238.8211

EPHEMERIS_TYPE = 0
CLASSIFICATION_TYPE = U
NORAD_CAT_ID   = 28480
ELEMENT_SET_NO = 999
REV_AT_EPOCH   = 11004
BSTAR          = .59771E-4
MEAN_MOTION_DOT = .122E-5
MEAN_MOTION_DDOT = 0

CCSDS_OMM_VERS = 2.0
CREATION_DATE  = 
ORIGINATOR     = 

OBJECT_NAME    = ARIANE 5 R/B
OBJECT_ID      = 2004-049H
CENTER_NAME    = EARTH
REF_FRAME      = TEME
TIME_SYSTEM    = UTC
MEAN_ELEMENT_THEORY = SGP/SGP4

EPOCH          = 2026-03-20T09:52:34.308480
MEAN_MOTION    = 14.85284101
ECCENTRICITY   = .0083233
INCLINATION    = 98.2641
RA_OF_ASC_NODE = 248.2710
ARG_OF_PERICENTER = 316.9557
MEAN_ANOMALY   = 42.5166

EPHEMERIS_TYPE = 0
CLASSIFICATION_TYPE = U
NORAD_CAT_ID   = 28499
ELEMENT_SET_NO = 999
REV_AT_EPOCH   = 14738
BSTAR          = .75281E-4
MEAN_MOTION_DOT = .621E-5
MEAN_MOTION_DDOT = 0

CCSDS_OMM_VERS = 2.0
CREATION_DATE  = 
ORIGINATOR     = 

OBJECT_NAME    = CZ-2D R/B
OBJECT_ID      = 2005-024B
CENTER_NAME    = EARTH
REF_FRAME      = TEME
TIME_SYSTEM    = UTC
MEAN_ELEMENT_THEORY = SGP/SGP4

EPOCH          = 2026-03-20T06:56:07.828800
MEAN_MOTION    = 15.61045673
ECCENTRICITY   = .0003983
INCLINATION    = 97.3582
RA_OF_ASC_NODE = 94.8309
ARG_OF_PERICENTER = 16.3856
MEAN_ANOMALY   = 343.7530

EPHEMERIS_TYPE = 0
CLASSIFICATION_TYPE = U
NORAD_CAT_ID   = 28738
ELEMENT_SET_NO = 999
REV_AT_EPOCH   = 14143
BSTAR          = .3545E-3
MEAN_MOTION_DOT = .29756E-3
MEAN_MOTION_DDOT = 0

CCSDS_OMM_VERS = 2.0
CREATION_DATE  = 
ORIGINATOR     = 

OBJECT_NAME    = ALOS (DAICHI)
OBJECT_ID      = 2006-002A
CENTER_NAME    = EARTH
REF_FRAME      = TEME
TIME_SYSTEM    = UTC
MEAN_ELEMENT_THEORY = SGP/SGP4

EPOCH          = 2026-03-20T09:28:56.441280
MEAN_MOTION    = 14.69841696
ECCENTRICITY   = .0000716
INCLINATION    = 98.1238
RA_OF_ASC_NODE = 35.2982
ARG_OF_PERICENTER = 84.4020
MEAN_ANOMALY   = 275.7267

EPHEMERIS_TYPE = 0
CLASSIFICATION_TYPE = U
NORAD_CAT_ID   = 28931
ELEMENT_SET_NO = 999
REV_AT_EPOCH   = 7505
BSTAR          = .19694E-3
MEAN_MOTION_DOT = .1127E-4
MEAN_MOTION_DDOT = 0

